[{"OBJECT_NAME":"STARLINK-2645","OBJECT_ID":"2021-040S","EPOCH":"2024-10-27T14:24:40.500000","MEAN_MOTION":15.06425298,"ECCENTRICITY":0.0001262,"INCLINATION":53.0538,"RA_OF_ASC_NODE":257.6265,"ARG_OF_PERICENTER":101.3424,"MEAN_ANOMALY":258.7707,"EPHEMERIS_TYPE":0,"CLASSIFICATION_TYPE":"U","NORAD_CAT_ID":48444,"ELEMENT_SET_NO":999,"REV_AT_EPOCH":19155,"BSTAR":0.0020746,"MEAN_MOTION_DOT":0.00030776,"MEAN_MOTION_DDOT":0},{"OBJECT_NAME":"STARLINK-2634","OBJECT_ID":"2021-040T","EPOCH":"2024-10-27T20:41:31.684128","MEAN_MOTION":15.06410977,"ECCENTRICITY":0.0001103,"INCLINATION":53.0563,"RA_OF_ASC_NODE":256.4531,"ARG_OF_PERICENTER":102.7674,"MEAN_ANOMALY":257.3438,"EPHEMERIS_TYPE":0,"CLASSIFICATION_TYPE":"U","NORAD_CAT_ID":48445,"ELEMENT_SET_NO":999,"REV_AT_EPOCH":19287,"BSTAR":0.00016793,"MEAN_MOTION_DOT":2.222e-5,"MEAN_MOTION_DDOT":0},{"OBJECT_NAME":"STARLINK-2655","OBJECT_ID":"2021-040X","EPOCH":"2024-10-27T20:25:35.573952","MEAN_MOTION":15.0638856,"ECCENTRICITY":0.0002114,"INCLINATION":53.0545,"RA_OF_ASC_NODE":256.4994,"ARG_OF_PERICENTER":83.5254,"MEAN_ANOMALY":276.5975,"EPHEMERIS_TYPE":0,"CLASSIFICATION_TYPE":"U","NORAD_CAT_ID":48449,"ELEMENT_SET_NO":999,"REV_AT_EPOCH":19287,"BSTAR":-1.0993e-5,"MEAN_MOTION_DOT":-4.45e-6,"MEAN_MOTION_DDOT":0},{"OBJECT_NAME":"STARLINK-2660","OBJECT_ID":"2021-040Y","EPOCH":"2024-10-27T14:02:07.832832","MEAN_MOTION":15.0639821,"ECCENTRICITY":0.0001578,"INCLINATION":53.0537,"RA_OF_ASC_NODE":257.7244,"ARG_OF_PERICENTER":105.5531,"MEAN_ANOMALY":254.5633,"EPHEMERIS_TYPE":0,"CLASSIFICATION_TYPE":"U","NORAD_CAT_ID":48450,"ELEMENT_SET_NO":999,"REV_AT_EPOCH":19283,"BSTAR":0.00297,"MEAN_MOTION_DOT":0.00044233,"MEAN_MOTION_DDOT":0},{"OBJECT_NAME":"STARLINK-2703","OBJECT_ID":"2021-040AA","EPOCH":"2024-10-27T13:52:49.939392","MEAN_MOTION":15.06409495,"ECCENTRICITY":0.0001272,"INCLINATION":53.0538,"RA_OF_ASC_NODE":257.6911,"ARG_OF_PERICENTER":85.3841,"MEAN_ANOMALY":274.7294,"EPHEMERIS_TYPE":0,"CLASSIFICATION_TYPE":"U","NORAD_CAT_ID":48452,"ELEMENT_SET_NO":999,"REV_AT_EPOCH":19155,"BSTAR":0.00061849,"MEAN_MOTION_DOT":8.945e-5,"MEAN_MOTION_DDOT":0},{"OBJECT_NAME":"STARLINK-2620","OBJECT_ID":"2021-040AB","EPOCH":"2024-10-27T13:47:32.443584","MEAN_MOTION":15.06415284,"ECCENTRICITY":0.0001569,"INCLINATION":53.0539,"RA_OF_ASC_NODE":257.7437,"ARG_OF_PERICENTER":95.7413,"MEAN_ANOMALY":264.3755,"EPHEMERIS_TYPE":0,"CLASSIFICATION_TYPE":"U","NORAD_CAT_ID":48453,"ELEMENT_SET_NO":999,"REV_AT_EPOCH":19155,"BSTAR":0.0013398,"MEAN_MOTION_DOT":0.00019739,"MEAN_MOTION_DDOT":0},{"OBJECT_NAME":"STARLINK-2654","OBJECT_ID":"2021-040AC","EPOCH":"2024-10-27T07:20:03.454656","MEAN_MOTION":15.06414569,"ECCENTRICITY":0.000117,"INCLINATION":53.0541,"RA_OF_ASC_NODE":258.9514,"ARG_OF_PERICENTER":77.6628,"MEAN_ANOMALY":282.4492,"EPHEMERIS_TYPE":0,"CLASSIFICATION_TYPE":"U","NORAD_CAT_ID":48454,"ELEMENT_SET_NO":999,"REV_AT_EPOCH":19279,"BSTAR":0.0013732,"MEAN_MOTION_DOT":0.00020239,"MEAN_MOTION_DDOT":0},{"OBJECT_NAME":"STARLINK-2497","OBJECT_ID":"2021-040AD","EPOCH":"2024-10-27T04:03:40.086144","MEAN_MOTION":15.06403675,"ECCENTRICITY":0.0001378,"INCLINATION":53.0542,"RA_OF_ASC_NODE":259.557,"ARG_OF_PERICENTER":96.9414,"MEAN_ANOMALY":263.1731,"EPHEMERIS_TYPE":0,"CLASSIFICATION_TYPE":"U","NORAD_CAT_ID":48455,"ELEMENT_SET_NO":999,"REV_AT_EPOCH":19148,"BSTAR":0.00030598,"MEAN_MOTION_DOT":4.279e-5,"MEAN_MOTION_DDOT":0},{"OBJECT_NAME":"STARLINK-2698","OBJECT_ID":"2021-040AG","EPOCH":"2024-10-27T04:16:17.080608","MEAN_MOTION":15.06402266,"ECCENTRICITY":0.0001742,"INCLINATION":53.054,"RA_OF_ASC_NODE":264.6072,"ARG_OF_PERICENTER":99.1447,"MEAN_ANOMALY":260.9739,"EPHEMERIS_TYPE":0,"CLASSIFICATION_TYPE":"U","NORAD_CAT_ID":48458,"ELEMENT_SET_NO":999,"REV_AT_EPOCH":19213,"BSTAR":0.00052084,"MEAN_MOTION_DOT":7.485e-5,"MEAN_MOTION_DDOT":0},{"OBJECT_NAME":"STARLINK-2579","OBJECT_ID":"2021-040AH","EPOCH":"2024-10-27T07:16:45.597792","MEAN_MOTION":15.06434059,"ECCENTRICITY":0.0001758,"INCLINATION":53.054,"RA_OF_ASC_NODE":264.314,"ARG_OF_PERICENTER":115.1489,"MEAN_ANOMALY":244.9683,"EPHEMERIS_TYPE":0,"CLASSIFICATION_TYPE":"U","NORAD_CAT_ID":48459,"ELEMENT_SET_NO":999,"REV_AT_EPOCH":19144,"BSTAR":0.00064343,"MEAN_MOTION_DOT":9.324e-5,"MEAN_MOTION_DDOT":0},{"OBJECT_NAME":"STARLINK-2582","OBJECT_ID":"2021-040AJ","EPOCH":"2024-10-27T14:05:24.919008","MEAN_MOTION":15.06401284,"ECCENTRICITY":0.0003051,"INCLINATION":53.0539,"RA_OF_ASC_NODE":262.6826,"ARG_OF_PERICENTER":88.3413,"MEAN_ANOMALY":271.7926,"EPHEMERIS_TYPE":0,"CLASSIFICATION_TYPE":"U","NORAD_CAT_ID":48460,"ELEMENT_SET_NO":999,"REV_AT_EPOCH":19198,"BSTAR":0.0019398,"MEAN_MOTION_DOT":0.00028732,"MEAN_MOTION_DDOT":0},{"OBJECT_NAME":"STARLINK-2693","OBJECT_ID":"2021-040AK","EPOCH":"2024-10-27T22:00:00.999936","MEAN_MOTION":15.1356327,"ECCENTRICITY":0.0001513,"INCLINATION":53.0527,"RA_OF_ASC_NODE":261.1064,"ARG_OF_PERICENTER":106.1146,"MEAN_ANOMALY":213.2174,"EPHEMERIS_TYPE":0,"CLASSIFICATION_TYPE":"U","NORAD_CAT_ID":48461,"ELEMENT_SET_NO":999,"REV_AT_EPOCH":19281,"BSTAR":0.070831,"MEAN_MOTION_DOT":0.01402109,"MEAN_MOTION_DDOT":0},{"OBJECT_NAME":"STARLINK-2683","OBJECT_ID":"2021-040AL","EPOCH":"2024-10-27T15:37:42.760704","MEAN_MOTION":15.06419265,"ECCENTRICITY":0.0001745,"INCLINATION":53.0543,"RA_OF_ASC_NODE":267.6757,"ARG_OF_PERICENTER":103.4609,"MEAN_ANOMALY":256.6574,"EPHEMERIS_TYPE":0,"CLASSIFICATION_TYPE":"U","NORAD_CAT_ID":48462,"ELEMENT_SET_NO":999,"REV_AT_EPOCH":19202,"BSTAR":0.0014384,"MEAN_MOTION_DOT":0.0002122,"MEAN_MOTION_DDOT":0},{"OBJECT_NAME":"STARLINK-2689","OBJECT_ID":"2021-040AM","EPOCH":"2024-10-27T04:38:08.544480","MEAN_MOTION":15.0640128,"ECCENTRICITY":0.00016,"INCLINATION":53.0534,"RA_OF_ASC_NODE":269.454,"ARG_OF_PERICENTER":100.797,"MEAN_ANOMALY":259.3199,"EPHEMERIS_TYPE":0,"CLASSIFICATION_TYPE":"U","NORAD_CAT_ID":48463,"ELEMENT_SET_NO":999,"REV_AT_EPOCH":19136,"BSTAR":0.00011195,"MEAN_MOTION_DOT":1.386e-5,"MEAN_MOTION_DDOT":0},{"OBJECT_NAME":"STARLINK-2686","OBJECT_ID":"2021-040AN","EPOCH":"2024-10-27T21:38:35.132928","MEAN_MOTION":15.06403412,"ECCENTRICITY":0.00016,"INCLINATION":53.0536,"RA_OF_ASC_NODE":266.2719,"ARG_OF_PERICENTER":106.9984,"MEAN_ANOMALY":253.1181,"EPHEMERIS_TYPE":0,"CLASSIFICATION_TYPE":"U","NORAD_CAT_ID":48464,"ELEMENT_SET_NO":999,"REV_AT_EPOCH":19274,"BSTAR":0.0011155,"MEAN_MOTION_DOT":0.00016374,"MEAN_MOTION_DDOT":0},{"OBJECT_NAME":"STARLINK-2681","OBJECT_ID":"2021-040AP","EPOCH":"2024-10-27T15:32:20.704704","MEAN_MOTION":15.06413847,"ECCENTRICITY":0.0001634,"INCLINATION":53.0565,"RA_OF_ASC_NODE":267.4103,"ARG_OF_PERICENTER":102.314,"MEAN_ANOMALY":257.8032,"EPHEMERIS_TYPE":0,"CLASSIFICATION_TYPE":"U","NORAD_CAT_ID":48465,"ELEMENT_SET_NO":999,"REV_AT_EPOCH":19270,"BSTAR":0.00025022,"MEAN_MOTION_DOT":3.449e-5,"MEAN_MOTION_DDOT":0}]