STARLINK-2645           
1 48444U 21040S   24301.60046875  .00030776  00000+0  20746-2 0  9990
2 48444  53.0538 257.6265 0001262 101.3424 258.7707 15.06425298191558
STARLINK-2634           
1 48445U 21040T   24301.86217227  .00002222  00000+0  16793-3 0  9993
2 48445  53.0563 256.4531 0001103 102.7674 257.3438 15.06410977192876
STARLINK-2655           
1 48449U 21040X   24301.85110618 -.00000445  00000+0 -10993-4 0  9996
2 48449  53.0545 256.4994 0002114  83.5254 276.5975 15.06388560192877
STARLINK-2660           
1 48450U 21040Y   24301.58481288  .00044233  00000+0  29700-2 0  9997
2 48450  53.0537 257.7244 0001578 105.5531 254.5633 15.06398210192834
STARLINK-2703           
1 48452U 21040AA  24301.57835578  .00008945  00000+0  61849-3 0  9994
2 48452  53.0538 257.6911 0001272  85.3841 274.7294 15.06409495191550
STARLINK-2620           
1 48453U 21040AB  24301.57468106  .00019739  00000+0  13398-2 0  9992
2 48453  53.0539 257.7437 0001569  95.7413 264.3755 15.06415284191555
STARLINK-2654           
1 48454U 21040AC  24301.30559554  .00020239  00000+0  13732-2 0  9991
2 48454  53.0541 258.9514 0001170  77.6628 282.4492 15.06414569192794
STARLINK-2497           
1 48455U 21040AD  24301.16921396  .00004279  00000+0  30598-3 0  9999
2 48455  53.0542 259.5570 0001378  96.9414 263.1731 15.06403675191485
STARLINK-2698           
1 48458U 21040AG  24301.17797547  .00007485  00000+0  52084-3 0  9998
2 48458  53.0540 264.6072 0001742  99.1447 260.9739 15.06402266192137
STARLINK-2579           
1 48459U 21040AH  24301.30330553  .00009324  00000+0  64343-3 0  9999
2 48459  53.0540 264.3140 0001758 115.1489 244.9683 15.06434059191441
STARLINK-2582           
1 48460U 21040AJ  24301.58709397  .00028732  00000+0  19398-2 0  9990
2 48460  53.0539 262.6826 0003051  88.3413 271.7926 15.06401284191980
STARLINK-2693           
1 48461U 21040AK  24301.91667824  .01402109  00000+0  70831-1 0  9999
2 48461  53.0527 261.1064 0001513 106.1146 213.2174 15.13563270192810
STARLINK-2683           
1 48462U 21040AL  24301.65118936  .00021220  00000+0  14384-2 0  9998
2 48462  53.0543 267.6757 0001745 103.4609 256.6574 15.06419265192024
STARLINK-2689           
1 48463U 21040AM  24301.19315445  .00001386  00000+0  11195-3 0  9991
2 48463  53.0534 269.4540 0001600 100.7970 259.3199 15.06401280191363
STARLINK-2686           
1 48464U 21040AN  24301.90179552  .00016374  00000+0  11155-2 0  9996
2 48464  53.0536 266.2719 0001600 106.9984 253.1181 15.06403412192747
STARLINK-2681           
1 48465U 21040AP  24301.64746186  .00003449  00000+0  25022-3 0  9999
2 48465  53.0565 267.4103 0001634 102.3140 257.8032 15.06413847192706
